{
  "norad_id": 60300,
  "name": "STARLINK-32134",
  "history": [
    {
      "epoch": "2026-03-28T21:52:49.246176Z",
      "apogee_km": 476.17194507706427,
      "perigee_km": 474.2324500841487,
      "latitude_deg": -9.720308941539082e-07,
      "longitude_deg": 168.59527705841725,
      "height_km": 475.803235018392,
      "semi_major_axis_km": 6853.339197580606,
      "eccentricity": 0.0001415,
      "inclination_deg": 53.1613,
      "raan_deg": 323.1258,
      "arg_perigee_deg": 72.1608,
      "mean_anomaly_deg": 287.9547,
      "mean_motion_rev_day": 15.30204311
    }
  ]
}