{"fetched_at":"2026-03-30T09:12:31Z","count":15922,"tles":[{"name":"STARLINK-32134","line1":"1 60300U 24132Y   26087.91168109  .00004639  00000+0  16864-3 0  9998","line2":"2 60300  53.1613 323.1258 0001415  72.1608 287.9547 15.30204311 94509","category":"Starlink"}]}